PROBA-1                 
1 26958U 01049B   23214.35772489  .00003025  00000+0  24520-3 0  9996
2 26958  97.8753 181.1414 0069561  52.6275 308.1255 14.98591107185952
BIRD 2                  
1 26959U 01049C   23214.31934522  .00103474  00000+0  60390-3 0  9995
2 26959  97.7752 346.2774 0003545 278.2494  81.8369 15.78098790210806
CUTE-1 (CO-55)          
1 27844U 03031E   23214.03005928  .00000452  00000+0  22080-3 0  9996
2 27844  98.6782 220.6159 0009733   0.6647 359.4542 14.22831483 42281
CUBESAT XI-IV (CO-57)   
1 27848U 03031J   23213.98668922  .00000375  00000+0  18814-3 0  9996
2 27848  98.6818 220.9713 0009930  15.6913 344.4571 14.22335400 42065
GENESIS 1               
1 29252U 06029A   23214.03804388  .00010906  00000+0  40645-3 0  9990
2 29252  64.5199 156.8045 0019342 209.5811 150.4224 15.27685492941595
GENESIS 2               
1 31789U 07028A   23213.71144162  .00010210  00000+0  38207-3 0  9998
2 31789  64.4918 202.2304 0055429 255.5416 103.9557 15.26336008888411
APRIZESAT 4             
1 35684U 09041D   23213.82291395  .00001152  00000+0  15537-3 0  9992
2 35684  98.2816 246.0959 0047370 113.6937 246.9255 14.80465017755813
APRIZESAT 3             
1 35686U 09041F   23213.75220797  .00001598  00000+0  16761-3 0  9998
2 35686  98.1017 314.6057 0068801 284.3757  74.9829 14.89372047759691
PROBA-2                 
1 36037U 09059B   23213.74603866  .00000312  00000+0  85490-4 0  9998
2 36037  98.2272  37.7627 0012112 285.1595  74.8262 14.53571095728944
APRIZESAT 5             
1 37792U 11044E   23214.28146757  .00001085  00000+0  15902-3 0  9993
2 37792  98.2709 105.6756 0057758 132.3741 228.2379 14.76658713643743
APRIZESAT 6             
1 37793U 11044F   23213.64670390  .00000858  00000+0  13845-3 0  9999
2 37793  98.3478  83.5675 0045648 193.7533 227.4594 14.73518464642404
PROBA-V                 
1 39159U 13021A   23214.33019849  .00000137  00000+0  78884-4 0  9992
2 39159  98.3190 233.5572 0003667 346.0019  14.1059 14.23136131531768
APRIZESAT 7             
1 39416U 13066A   23213.63821563  .00001793  00000+0  20929-3 0  9998
2 39416  97.6226 179.8749 0041440  86.3804 274.2149 14.85755920524943
APRIZESAT 8             
1 39425U 13066K   23213.46268505  .00001265  00000+0  15946-3 0  9997
2 39425  97.6810 172.1567 0051482 136.1436 224.3883 14.82740547523966
BUGSAT-1 (TITA)         
1 40014U 14033E   23214.12964748  .00004929  00000+0  39808-3 0  9997
2 40014  98.1310 235.1456 0034448 117.4644 243.0088 14.99863991497610
SAUDISAT 4              
1 40016U 14033G   23214.36433922  .00000845  00000+0  12710-3 0  9996
2 40016  97.6435  31.7238 0046155 247.0727 112.5609 14.76259698491028
APRIZESAT 9             
1 40018U 14033J   23214.37619271  .00000670  00000+0  11320-3 0  9994
2 40018  97.7592   9.0880 0069483 335.2050  24.5824 14.71006987489174
APRIZESAT 10            
1 40019U 14033K   23214.41447333  .00000621  00000+0  11112-3 0  9993
2 40019  97.8219 359.8667 0083453  25.9929 334.5431 14.68001122488250
TDS 1                   
1 40076U 14037H   23214.31069189  .00004436  00000+0  47730-3 0  9991
2 40076  98.3397 113.8646 0006516 167.4334 192.7045 14.89042809490841
TIANTUO 2               
1 40144U 14053B   23214.44163817  .00013402  00000+0  27319-3 0  9996
2 40144  97.1591 292.2784 0010045 140.8707 219.3271 15.46289920498392
TECHNOSAT               
1 42829U 17042E   23214.34397899  .00002892  00000+0  27658-3 0  9994
2 42829  97.3872  49.0292 0014801  72.9735 287.3107 14.93868246329380
FLYING LAPTOP           
1 42831U 17042G   23214.12740273  .00001420  00000+0  14047-3 0  9995
2 42831  97.3899  49.1016 0014991  74.1510 286.1362 14.93245512329343
HAWK-A                  
1 43765U 18099H   23213.76727174  .00003663  00000+0  30104-3 0  9992
2 43765  97.5667 275.7489 0012631 326.2026  33.8391 14.99711910254575
HAWK-B                  
1 43794U 18099AN  23214.43485045  .00003557  00000+0  29239-3 0  9996
2 43794  97.5664 276.3967 0012520 324.3622  35.6765 14.99716375254665
HAWK-C                  
1 43799U 18099AT  23214.43469426  .00003526  00000+0  28992-3 0  9997
2 43799  97.5662 276.2951 0012412 323.9837  36.0549 14.99715726254667
SALSAT                  
1 46495U 20068K   23213.44267886  .00004622  00000+0  30270-3 0  9998
2 46495  97.7720 161.9428 0014236 333.2311  26.8180 15.08166757155894
HAWK-2C                 
1 47502U 21006CT  23213.73934650  .00010261  00000+0  50346-3 0  9995
2 47502  97.3831 266.6277 0007541 310.7734  49.2845 15.18263125139345
HAWK-2A                 
1 47505U 21006CW  23214.39863332  .00011388  00000+0  55814-3 0  9995
2 47505  97.3828 267.3795 0007575 306.0743  53.9789 15.18273910139445
HAWK-2B                 
1 47508U 21006CZ  23214.13526358  .00009766  00000+0  47915-3 0  9994
2 47508  97.3827 267.0127 0007786 309.4207  50.6338 15.18277808139409
HAWK-3B                 
1 48931U 21059BE  23213.37119508  .00007912  00000+0  35725-3 0  9990
2 48931  97.5900 347.6423 0015379 121.9416 238.3317 15.21150859116153
HAWK-3C                 
1 48948U 21059BX  23213.37101792  .00007718  00000+0  34842-3 0  9997
2 48948  97.6163 350.0921 0016345 125.2727 235.0039 15.21153533116157
HAWK-3A                 
1 48957U 21059CG  23214.09443154  .00008501  00000+0  38323-3 0  9997
2 48957  97.6035 349.6025 0016476 117.6179 242.6731 15.21166061116260
HAWK-4B                 
1 52165U 22033J   23214.15123032  .00010924  00000+0  39122-3 0  9993
2 52165  97.3562 294.1121 0009193  20.8495 339.3119 15.28890618 74269
HAWK-4A                 
1 52167U 22033L   23213.75833329  .00010465  00000+0  37504-3 0  9999
2 52167  97.3514 293.4373 0008656  22.9080 337.2545 15.28884861 74202
HAWK-4C                 
1 52170U 22033P   23214.15083963  .00011056  00000+0  39585-3 0  9997
2 52170  97.3559 294.0978 0010099   6.4843 353.6526 15.28888770 74261
HAWK-5C                 
1 52754U 22057Y   23213.76017180  .00007080  00000+0  35888-3 0  9999
2 52754  97.5589 329.8293 0009198 175.7663 184.3650 15.17237740 65539
HAWK-5B                 
1 52756U 22057AA  23213.76003264  .00007017  00000+0  35563-3 0  9999
2 52756  97.5435 328.9095 0009997 171.7091 188.4310 15.17238763 65533
HAWK-5A                 
1 52757U 22057AB  23214.08957493  .00007708  00000+0  39022-3 0  9999
2 52757  97.5512 329.6951 0010275 174.1747 185.9608 15.17243529 65588
HAWK-6B                 
1 55324U 23011A   23214.43150469  .00003710  00000+0  24958-3 0  9991
2 55324  40.5182 281.5715 0003442  94.1329 265.9869 15.07679666 28571
HAWK-6C                 
1 55326U 23011C   23214.43124484  .00003692  00000+0  24839-3 0  9998
2 55326  40.4869 280.9971 0003348  80.2620 279.8562 15.07675228 28581
HAWK-6A                 
1 55327U 23011D   23214.43107548  .00003731  00000+0  25093-3 0  9998
2 55327  40.5027 281.3036 0003303  75.5393 284.5778 15.07677600 28589
HAWK-7A                 
1 56191U 23054P   23213.69989125  .00007249  00000+0  31129-3 0  9996
2 56191  97.4035 108.0561 0010433 214.7736 145.2820 15.22943510 17107
HAWK-7B                 
1 56193U 23054R   23214.42246209  .00006805  00000+0  29237-3 0  9993
2 56193  97.3897 108.5139 0010039 196.6380 163.4529 15.22951814 17211
HAWK-7C                 
1 56200U 23054Y   23214.42227031  .00006599  00000+0  28352-3 0  9991
2 56200  97.3966 108.6416 0011310 203.1628 156.9101 15.22951351 17217
